NAVSTAR 77 (USA 289)    
1 43873U 18109A   24017.27896617  .00000010  00000+0  00000+0 0  9993
2 43873  55.2403 127.0320 0028484 192.3946 353.0375  2.00572800 37382
